SWARM A                 
1 39452U 13067B   26192.54090722  .00006533  00000+0  11023-3 0  9995
2 39452  87.3306  47.1873 0003328  94.7395 265.4246 15.51411399710023
SWARM C                 
1 39453U 13067C   26192.54081249  .00006623  00000+0  11176-3 0  9999
2 39453  87.3306  45.7680 0003301  94.4318 265.7320 15.51410652709987
BRITE-CA1 (TORONTO)     
1 40020U 14033L   26190.18755172  .00000733  00000+0  11766-3 0  9997
2 40020  97.9764 318.7133 0078005 205.5751 154.1590 14.72715027645456
OCO 2                   
1 40059U 14035A   26192.46434638  .00000191  00000+0  52403-4 0  9997
2 40059  98.2021 133.3885 0001461  81.8044 278.3320 14.57130496639586
BRITE-PL2 (HEWELIUSZ)   
1 40119U 14049B   26192.54109981  .00001064  00000+0  10344-3 0  9995
2 40119  97.9117 304.7322 0014652  34.1400 326.0759 14.94680800645087
MMS 1                   
1 40482U 15011A   26192.58335647 -.00001160  00000+0  00000+0 0  9994
2 40482  72.4833 348.4728 8304112 167.9917 267.1071  0.28386023  1357
MMS 2                   
1 40483U 15011B   26192.58335647 -.00001161  00000+0  00000+0 0  9996
2 40483  72.4875 348.4719 8306916 167.9928 267.1019  0.28384012  1358
MMS 3                   
1 40484U 15011C   26192.58335647 -.00001160  00000+0  00000+0 0  9996
2 40484  72.4872 348.4838 8305280 168.0005 267.0760  0.28384001  1326
MMS 4                   
1 40485U 15011D   26192.58335647 -.00001160  00000+0  00000+0 0  9997
2 40485  72.4829 348.4672 8305225 168.0103 267.0706  0.28384005  1383
ASTROSAT                
1 40930U 15052A   26191.90596706  .00001214  00000+0  66131-4 0  9998
2 40930   5.9979 344.6185 0007867   9.4837 350.5439 14.82548208583352
DAMPE                   
1 41173U 15078A   26192.55016162  .00001017  00000+0  36685-4 0  9993
2 41173  97.4565 198.1376 0012010 358.7330   1.3878 15.30848082588278
PISAT                   
1 41784U 16059B   26192.52907075  .00000502  00000+0  93078-4 0  9997
2 41784  97.8188 191.9369 0030290 126.0385 234.3635 14.69025621523310
HXMT (HUIYAN)           
1 42758U 17034A   26192.53678787  .00003002  00000+0  15185-3 0  9999
2 42758  43.0150  47.4371 0032633 298.4329  61.3233 15.18668800501367
FLYING LAPTOP           
1 42831U 17042G   26192.51429750  .00002255  00000+0  17907-3 0  9995
2 42831  97.4788 347.1294 0019851  44.1451 316.1353 15.01297837490105
ZHANGHENG 1-01 (CSES-1) 
1 43194U 18015C   26192.54767868  .00004434  00000+0  20513-3 0  9995
2 43194  97.6882 358.6950 0016071 177.2938 182.8387 15.20577906468345
SALSAT                  
1 46495U 20068K   26192.47522477  .00004471  00000+0  15610-3 0  9993
2 46495  97.8856 197.0247 0008815 206.7694 153.3092 15.30138870319078
IXPE                    
1 49954U 21121A   26192.50002315  .00007387  00000+0  38117-3 0  9991
2 49954   0.2298 133.2308 0006639  88.5974 309.7969 15.10470960  5921
