OBJECT_NAME,OBJECT_ID,EPOCH,MEAN_MOTION,ECCENTRICITY,INCLINATION,RA_OF_ASC_NODE,ARG_OF_PERICENTER,MEAN_ANOMALY,EPHEMERIS_TYPE,CLASSIFICATION_TYPE,NORAD_CAT_ID,ELEMENT_SET_NO,REV_AT_EPOCH,BSTAR,MEAN_MOTION_DOT,MEAN_MOTION_DDOT
SWARM A,2013-067B,2026-07-11T12:58:54.383808,15.51411399,.0003328,87.3306,47.1873,94.7395,265.4246,0,U,39452,999,71002,.11023E-3,.6533E-4,0
SWARM C,2013-067C,2026-07-11T12:58:46.199136,15.51410652,.0003301,87.3306,45.7680,94.4318,265.7320,0,U,39453,999,70998,.11176E-3,.6623E-4,0
BRITE-CA1 (TORONTO),2014-033L,2026-07-09T04:30:04.468608,14.72715027,.00780057,97.9764,318.7133,205.5751,154.1590,0,U,40020,999,64545,.1176575E-3,.733E-5,0
OCO 2,2014-035A,2026-07-11T11:08:39.527232,14.57130496,.0001461,98.2021,133.3885,81.8044,278.3320,0,U,40059,999,63958,.52403E-4,.191E-5,0
BRITE-PL2 (HEWELIUSZ),2014-049B,2026-07-11T12:59:11.023584,14.94680800,.0014652,97.9117,304.7322,34.1400,326.0759,0,U,40119,999,64508,.10344E-3,.1064E-4,0
MMS 1,2015-011A,2026-07-11T14:00:01.999008,0.28386023,.8304112,72.4833,348.4728,167.9917,267.1071,0,U,40482,999,135,0,-.116E-4,0
MMS 2,2015-011B,2026-07-11T14:00:01.999008,0.28384012,.8306916,72.4875,348.4719,167.9928,267.1019,0,U,40483,999,135,0,-.1161E-4,0
MMS 3,2015-011C,2026-07-11T14:00:01.999008,0.28384001,.830528,72.4872,348.4838,168.0005,267.0760,0,U,40484,999,132,0,-.116E-4,0
MMS 4,2015-011D,2026-07-11T14:00:01.999008,0.28384005,.8305225,72.4829,348.4672,168.0103,267.0706,0,U,40485,999,138,0,-.116E-4,0
ASTROSAT,2015-052A,2026-07-10T21:44:35.553984,14.82548208,.0007867,5.9979,344.6185,9.4837,350.5439,0,U,40930,999,58335,.66131E-4,.1214E-4,0
DAMPE,2015-078A,2026-07-11T13:12:13.963968,15.30848082,.001201,97.4565,198.1376,358.7330,1.3878,0,U,41173,999,58827,.36685E-4,.1017E-4,0
PISAT,2016-059B,2026-07-11T12:41:51.712800,14.69025621,.003029,97.8188,191.9369,126.0385,234.3635,0,U,41784,999,52331,.93078E-4,.502E-5,0
HXMT (HUIYAN),2017-034A,2026-07-11T12:52:58.471968,15.18668800,.0032633,43.0150,47.4371,298.4329,61.3233,0,U,42758,999,50136,.15185E-3,.3002E-4,0
FLYING LAPTOP,2017-042G,2026-07-11T12:20:35.304000,15.01297837,.0019851,97.4788,347.1294,44.1451,316.1353,0,U,42831,999,49010,.17907E-3,.2255E-4,0
ZHANGHENG 1-01 (CSES-1),2018-015C,2026-07-11T13:08:39.437952,15.20577906,.0016071,97.6882,358.6950,177.2938,182.8387,0,U,43194,999,46834,.20513E-3,.4434E-4,0
SALSAT,2020-068K,2026-07-11T11:24:19.420128,15.30138870,.0008815,97.8856,197.0247,206.7694,153.3092,0,U,46495,999,31907,.1561E-3,.4471E-4,0
IXPE,2021-121A,2026-07-11T12:00:02.000160,15.10470960,.0006639,0.2298,133.2308,88.5974,309.7969,0,U,49954,999,592,.38117E-3,.7387E-4,0
